OBJECT_NAME,OBJECT_ID,EPOCH,MEAN_MOTION,ECCENTRICITY,INCLINATION,RA_OF_ASC_NODE,ARG_OF_PERICENTER,MEAN_ANOMALY,EPHEMERIS_TYPE,CLASSIFICATION_TYPE,NORAD_CAT_ID,ELEMENT_SET_NO,REV_AT_EPOCH,BSTAR,MEAN_MOTION_DOT,MEAN_MOTION_DDOT
ONEWEB-0667,2023-029AH,2026-07-14T14:28:27.753600,13.20772935,.0001965,87.9193,268.9690,102.5817,257.5536,0,U,55827,999,16476,.29950592E-4,.25E-6,0
ONEWEB-0669,2023-029AJ,2026-07-14T14:21:11.175264,13.20770730,.00016913,87.9189,268.9792,86.8533,273.2793,0,U,55828,999,16476,-.38975758E-3,-.145E-5,0
ONEWEB-0670,2023-029AK,2026-07-14T14:45:10.203552,13.14501924,.00016443,87.8957,284.2737,106.9249,253.2061,0,U,55829,999,16303,.55525101E-3,.219E-5,0
ONEWEB-0671,2023-029AL,2026-07-14T14:02:23.708832,13.19726592,.00019461,87.9185,299.5199,104.9877,255.1472,0,U,55830,999,16251,.11533926E-3,.59E-6,0
ONEWEB-0672,2023-029AM,2026-07-14T14:13:55.669152,13.20770028,.00020907,87.9189,268.9737,93.4082,266.7291,0,U,55831,999,16476,.2851541E-5,.14E-6,0
ONEWEB-0673,2023-029AN,2026-07-14T13:29:24.855072,13.19725237,.00019307,87.9193,299.5179,104.1666,255.9681,0,U,55832,999,16251,.18729011E-3,.88E-6,0
ONEWEB-0674,2023-029AP,2026-07-14T12:09:52.159680,13.14502019,.0001621,87.8963,284.2720,104.0401,256.0909,0,U,55833,999,16300,-.39028321E-3,-.132E-5,0
ONEWEB-0675,2023-029AQ,2026-07-14T13:51:01.903968,13.19724060,.00022516,87.9186,299.5230,97.4359,262.7029,0,U,55834,999,16253,.87929306E-4,.48E-6,0
ONEWEB-0720,2023-029AR,2026-07-14T13:39:39.418272,13.19725888,.00021354,87.9183,299.5242,108.3293,251.8072,0,U,55835,999,16245,.12727642E-4,.18E-6,0
ONEWEB-0537,2023-043A,2026-07-14T13:17:03.164640,13.16594114,.00021735,87.9081,223.3354,89.3020,270.8360,0,U,56046,999,16256,-.13916465E-3,-.4E-6,0
ONEWEB-0538,2023-043B,2026-07-14T14:57:21.895776,13.16594164,.0002339,87.9084,223.3239,93.7687,266.3711,0,U,56047,999,16258,.1828609E-4,.2E-6,0
ONEWEB-0546,2023-043C,2026-07-14T14:39:07.501536,13.16594343,.00022741,87.9083,223.3266,78.9272,281.2114,0,U,56048,999,16257,.36525237E-3,.152E-5,0
ONEWEB-0547,2023-043D,2026-07-14T13:47:18.491712,13.21827126,.00022188,87.9242,238.5241,102.0524,258.0859,0,U,56049,999,16184,.1020862E-3,.55E-6,0
ONEWEB-0548,2023-043E,2026-07-14T13:25:00.865920,13.16594982,.00016124,87.9078,223.3328,91.4375,268.6941,0,U,56050,999,16256,-.37316024E-4,-.1E-7,0
ONEWEB-0549,2023-043F,2026-07-14T13:38:50.238528,13.21827157,.00024773,87.9233,238.5311,99.0876,261.0538,0,U,56051,999,16184,.1158565E-4,.18E-6,0
ONEWEB-0550,2023-043G,2026-07-14T13:19:28.443648,13.21827118,.00018853,87.9237,238.5316,100.8760,259.2586,0,U,56052,999,16184,.15487017E-3,.77E-6,0
ONEWEB-0551,2023-043H,2026-07-14T14:41:11.209056,13.15547557,.00023699,87.8983,253.7621,102.4739,257.6657,0,U,56053,999,16000,.38514398E-3,.158E-5,0
ONEWEB-0552,2023-043J,2026-07-14T15:01:11.460576,13.21826124,.00020927,87.9231,238.5222,101.9744,258.1624,0,U,56054,999,16185,.15296078E-3,.76E-6,0
ONEWEB-0553,2023-043K,2026-07-14T14:48:14.639904,13.16594317,.00020506,87.9081,223.3255,82.5872,277.5492,0,U,56055,999,16258,.29667915E-3,.126E-5,0
ONEWEB-0554,2023-043L,2026-07-14T14:30:00.538560,13.16594232,.00015211,87.9077,223.3370,93.1556,266.9749,0,U,56056,999,16256,.26491518E-3,.114E-5,0
ONEWEB-0555,2023-043M,2026-07-14T13:35:16.855584,13.16593691,.00022186,87.9079,223.3335,78.4674,281.6706,0,U,56057,999,16256,-.14281777E-3,-.42E-6,0
ONEWEB-0557,2023-043N,2026-07-14T13:55:48.043488,13.16593719,.00013401,87.9080,223.3401,56.4491,303.6768,0,U,56058,999,16256,-.23699961E-4,.4E-7,0
ONEWEB-0558,2023-043P,2026-07-14T14:51:30.742848,13.21825627,.00024367,87.9236,238.5192,95.8226,264.3186,0,U,56059,999,16186,.49566592E-4,.33E-6,0
ONEWEB-0559,2023-043Q,2026-07-14T14:34:33.258432,13.21824041,.00022209,87.9237,238.5171,100.8733,259.2651,0,U,56060,999,16187,.19402142E-3,.93E-6,0
ONEWEB-0566,2023-043R,2026-07-14T14:24:52.005024,13.21824140,.00023242,87.9238,238.5160,103.2377,256.9016,0,U,56061,999,16185,.1583801E-3,.78E-6,0
ONEWEB-0568,2023-043S,2026-07-14T14:20:52.948320,13.16595339,.00021339,87.9078,223.3263,86.1387,273.9988,0,U,56062,999,16258,.12540056E-3,.61E-6,0
ONEWEB-0574,2023-043T,2026-07-14T14:15:11.860128,13.21825938,.00018972,87.9241,238.5224,94.5918,265.5433,0,U,56063,999,16189,.17011126E-3,.83E-6,0
ONEWEB-0575,2023-043U,2026-07-14T14:11:45.325248,13.16594907,.00017812,87.9076,223.3241,84.7435,275.3899,0,U,56064,999,16257,-.3448724E-5,.12E-6,0
ONEWEB-0576,2023-043V,2026-07-14T13:44:23.192160,13.16595389,.00018834,87.9083,223.3360,88.5581,271.5766,0,U,56065,999,16256,-.6845113E-4,-.13E-6,0
ONEWEB-0577,2023-043W,2026-07-14T13:53:31.095168,13.16595933,.00013287,87.9080,223.3326,81.8539,278.2743,0,U,56066,999,16259,.15688157E-4,.19E-6,0
