ONEWEB-0667             
1 55827U 23029AH  26195.60309900  .00000025  00000+0  29951-4 0  9999
2 55827  87.9193 268.9690 0001965 102.5817 257.5536 13.20772935164767
ONEWEB-0669             
1 55828U 23029AJ  26195.59804601 -.00000145  00000+0 -38976-3 0  9997
2 55828  87.9189 268.9792 0001691  86.8533 273.2793 13.20770730164762
ONEWEB-0670             
1 55829U 23029AK  26195.61470143  .00000219  00000+0  55525-3 0  9990
2 55829  87.8957 284.2737 0001644 106.9249 253.2061 13.14501924163036
ONEWEB-0671             
1 55830U 23029AL  26195.58499663  .00000059  00000+0  11534-3 0  9990
2 55830  87.9185 299.5199 0001946 104.9877 255.1472 13.19726592162517
ONEWEB-0672             
1 55831U 23029AM  26195.59300543  .00000014  00000+0  28515-5 0  9990
2 55831  87.9189 268.9737 0002090  93.4082 266.7291 13.20770028164762
ONEWEB-0673             
1 55832U 23029AN  26195.56209323  .00000088  00000+0  18729-3 0  9997
2 55832  87.9193 299.5179 0001930 104.1666 255.9681 13.19725237162512
ONEWEB-0674             
1 55833U 23029AP  26195.50685370 -.00000132  00000+0 -39028-3 0  9999
2 55833  87.8963 284.2720 0001621 104.0401 256.0909 13.14502019163009
ONEWEB-0675             
1 55834U 23029AQ  26195.57710537  .00000048  00000+0  87929-4 0  9999
2 55834  87.9186 299.5230 0002251  97.4359 262.7029 13.19724060162531
ONEWEB-0720             
1 55835U 23029AR  26195.56920623  .00000018  00000+0  12728-4 0  9990
2 55835  87.9183 299.5242 0002135 108.3293 251.8072 13.19725888162459
ONEWEB-0537             
1 56046U 23043A   26195.55350885 -.00000040  00000+0 -13916-3 0  9993
2 56046  87.9081 223.3354 0002173  89.3020 270.8360 13.16594114162564
ONEWEB-0538             
1 56047U 23043B   26195.62317009  .00000020  00000+0  18286-4 0  9995
2 56047  87.9084 223.3239 0002339  93.7687 266.3711 13.16594164162589
ONEWEB-0546             
1 56048U 23043C   26195.61050349  .00000152  00000+0  36525-3 0  9997
2 56048  87.9083 223.3266 0002274  78.9272 281.2114 13.16594343162573
ONEWEB-0547             
1 56049U 23043D   26195.57451958  .00000055  00000+0  10209-3 0  9997
2 56049  87.9242 238.5241 0002218 102.0524 258.0859 13.21827126161840
ONEWEB-0548             
1 56050U 23043E   26195.55903780 -.00000001  00000+0 -37316-4 0  9994
2 56050  87.9078 223.3328 0001612  91.4375 268.6941 13.16594982162563
ONEWEB-0549             
1 56051U 23043F   26195.56863702  .00000018  00000+0  11586-4 0  9992
2 56051  87.9233 238.5311 0002477  99.0876 261.0538 13.21827157161845
ONEWEB-0550             
1 56052U 23043G   26195.55519032  .00000077  00000+0  15487-3 0  9994
2 56052  87.9237 238.5316 0001885 100.8760 259.2586 13.21827118161849
ONEWEB-0551             
1 56053U 23043H   26195.61193529  .00000158  00000+0  38514-3 0  9997
2 56053  87.8983 253.7621 0002369 102.4739 257.6657 13.15547557160004
ONEWEB-0552             
1 56054U 23043J   26195.62582709  .00000076  00000+0  15296-3 0  9992
2 56054  87.9231 238.5222 0002092 101.9744 258.1624 13.21826124161854
ONEWEB-0553             
1 56055U 23043K   26195.61683611  .00000126  00000+0  29668-3 0  9990
2 56055  87.9081 223.3255 0002050  82.5872 277.5492 13.16594317162585
ONEWEB-0554             
1 56056U 23043L   26195.60417290  .00000114  00000+0  26492-3 0  9997
2 56056  87.9077 223.3370 0001521  93.1556 266.9749 13.16594232162569
ONEWEB-0555             
1 56057U 23043M   26195.56616731 -.00000042  00000+0 -14282-3 0  9990
2 56057  87.9079 223.3335 0002218  78.4674 281.6706 13.16593691162569
ONEWEB-0557             
1 56058U 23043N   26195.58041717  .00000004  00000+0 -23700-4 0  9992
2 56058  87.9080 223.3401 0001340  56.4491 303.6768 13.16593719162568
ONEWEB-0558             
1 56059U 23043P   26195.61910582  .00000033  00000+0  49567-4 0  9992
2 56059  87.9236 238.5192 0002436  95.8226 264.3186 13.21825627161868
ONEWEB-0559             
1 56060U 23043Q   26195.60732938  .00000093  00000+0  19402-3 0  9990
2 56060  87.9237 238.5171 0002220 100.8733 259.2651 13.21824041161879
ONEWEB-0566             
1 56061U 23043R   26195.60060191  .00000078  00000+0  15838-3 0  9998
2 56061  87.9238 238.5160 0002324 103.2377 256.9016 13.21824140161852
ONEWEB-0568             
1 56062U 23043S   26195.59783505  .00000061  00000+0  12540-3 0  9997
2 56062  87.9078 223.3263 0002133  86.1387 273.9988 13.16595339162586
ONEWEB-0574             
1 56063U 23043T   26195.59388727  .00000083  00000+0  17011-3 0  9997
2 56063  87.9241 238.5224 0001897  94.5918 265.5433 13.21825938161895
ONEWEB-0575             
1 56064U 23043U   26195.59149682  .00000012  00000+0 -34487-5 0  9994
2 56064  87.9076 223.3241 0001781  84.7435 275.3899 13.16594907162574
ONEWEB-0576             
1 56065U 23043V   26195.57249065 -.00000013  00000+0 -68451-4 0  9998
2 56065  87.9083 223.3360 0001883  88.5581 271.5766 13.16595389162567
ONEWEB-0577             
1 56066U 23043W   26195.57883212  .00000019  00000+0  15688-4 0  9995
2 56066  87.9080 223.3326 0001328  81.8539 278.2743 13.16595933162597
